ONEWEB-0300             
1 49089U 21075Q   25364.62019309 -.00000375  00000+0 -10786-2 0  9995
2 49089  87.8926  24.1302 0002030  89.3375 270.7986 13.12443011213098
ONEWEB-0301             
1 49090U 21075R   25364.60410048  .00000180  00000+0  46590-3 0  9995
2 49090  87.8923  24.1351 0002079  87.7855 272.3512 13.12442996212452
ONEWEB-0302             
1 49091U 21075S   25364.59053561  .00000419  00000+0  11295-2 0  9995
2 49091  87.8925  24.1458 0001413  96.9124 263.2165 13.12441917212438
ONEWEB-0304             
1 49092U 21075T   25364.59003606 -.00000230  00000+0 -62615-3 0  9997
2 49092  87.9102  39.3838 0001841 100.4471 259.6869 13.17648047211378
ONEWEB-0305             
1 49093U 21075U   25364.58330682  .00000031  00000+0  46867-4 0  9993
2 49093  87.9103  39.3624 0001932 109.5146 250.6195 13.17648587211409
ONEWEB-0308             
1 49094U 21075V   25364.58375112  .00000377  00000+0  10118-2 0  9992
2 49094  87.8927  24.1405 0001746  91.7686 268.3643 13.12442907212448
ONEWEB-0309             
1 49095U 21075W   25364.58668160 -.00000012  00000+0 -63220-4 0  9993
2 49095  87.9104  39.3780 0001404 100.0775 260.0516 13.17648573211376
ONEWEB-0310             
1 49096U 21075X   25364.59901890  .00000310  00000+0  82685-3 0  9999
2 49096  87.8918  24.1729 0001701  92.1244 268.0079 13.12443332213078
